[{"OBJECT_NAME":"STARLINK-35921","OBJECT_ID":"2025-271Z","EPOCH":"2026-03-09T12:16:11.715744","MEAN_MOTION":15.3018855,"ECCENTRICITY":0.0001416,"INCLINATION":53.1593,"RA_OF_ASC_NODE":140.4565,"ARG_OF_PERICENTER":76.929,"MEAN_ANOMALY":283.1869,"EPHEMERIS_TYPE":0,"CLASSIFICATION_TYPE":"U","NORAD_CAT_ID":66640,"ELEMENT_SET_NO":999,"REV_AT_EPOCH":1754,"BSTAR":0.00073634109,"MEAN_MOTION_DOT":0.00021505,"MEAN_MOTION_DDOT":0},{"OBJECT_NAME":"USA 55","OBJECT_ID":"1990-028B","EPOCH":"2026-03-09T23:32:27.967200","MEAN_MOTION":15.43003152,"ECCENTRICITY":0.00579189,"INCLINATION":94.0887,"RA_OF_ASC_NODE":87.6293,"ARG_OF_PERICENTER":152.9949,"MEAN_ANOMALY":207.4341,"EPHEMERIS_TYPE":0,"CLASSIFICATION_TYPE":"U","NORAD_CAT_ID":20547,"ELEMENT_SET_NO":999,"REV_AT_EPOCH":98658,"BSTAR":0.00013659834,"MEAN_MOTION_DOT":6.373e-5,"MEAN_MOTION_DDOT":0}]
